NORAD_CAT_ID,OBJECT_NAME,OBJECT_TYPE,EPOCH,MEAN_MOTION,ECCENTRICITY,INCLINATION,RA_OF_ASC_NODE,ARG_OF_PERICENTER,MEAN_ANOMALY,BSTAR,MEAN_MOTION_DOT,MEAN_MOTION_DDOT,TLE_LINE0,TLE_LINE1,TLE_LINE2,SEMIMAJOR_AXIS,PERIOD,APOGEE,PERIGEE,DECAYED
53853.0,STARLINK-4794,PAYLOAD,2022-10-14 14:00:01,15.73123916,0.0001142,53.2168,132.3774,102.4509,241.0485,0.00090188,0.00127473,0.0,0 STARLINK-4794,1 53853U 22114AM  22287.58334491  .00127473  00000-0  90188-3 0  9995,2 53853  53.2168 132.3774 0001142 102.4509 241.0485 15.73123916  1303,6728.111999999999,91.538,350.745,349.209,0.0
53853.0,STARLINK-4794,PAYLOAD,2022-10-14 16:00:00,15.73194498,0.0001147,53.2171,131.9655,102.0436,353.6525,0.00012042,0.00016309,0.0,0 STARLINK-4794,1 53853U 22114AM  22287.66667824  .00016309  00000-0  12042-3 0  9991,2 53853  53.2171 131.9655 0001147 102.0436 353.6525 15.73194498  4615,6727.911,91.534,350.548,349.004,0.0
53853.0,STARLINK-4794,PAYLOAD,2022-10-14 20:00:01,15.7320388,0.0001139999999999,53.2173,131.1418,96.578,223.5807,5.0835000000000005e-06,9.4e-07,0.0,0 STARLINK-4794,1 53853U 22114AM  22287.83334491  .00000094  00000-0  50835-5 0  9999,2 53853  53.2173 131.1418 0001140  96.5780 223.5807 15.73203880  1305,6727.884,91.533,350.516,348.982,0.0
53853.0,STARLINK-4794,PAYLOAD,2022-10-15 14:00:01,15.7320348,0.0001155,53.2155,127.431,108.3238,141.9885,1.4309e-05,1.389e-05,0.0,0 STARLINK-4794,1 53853U 22114AM  22288.58334491  .00001389  00000-0  14309-4 0  9995,2 53853  53.2155 127.4310 0001155 108.3238 141.9885 15.73203480  1305,6727.885,91.533,350.527,348.973,0.0
53853.0,STARLINK-4794,PAYLOAD,2022-10-15 22:00:01,15.73205325,0.0001416999999999,53.2174,125.7812,118.6336,220.6262,-1.4238e-05,-2.618e-05,0.0,0 STARLINK-4794,1 53853U 22114AM  22288.91668981 -.00002618  00000-0 -14238-4 0  9995,2 53853  53.2174 125.7812 0001417 118.6336 220.6262 15.73205325  4800,6727.88,91.533,350.6980000000001,348.792,0.0
53853.0,STARLINK-4794,PAYLOAD,2022-10-16 14:00:01,15.73163496,0.0001167,53.2157,122.4827,102.1589,54.89100000000001,0.00012183,0.00016485,0.0,0 STARLINK-4794,1 53853U 22114AM  22289.58334491  .00016485  00000-0  12183-3 0  9996,2 53853  53.2157 122.4827 0001167 102.1589  54.8910 15.73163496  1302,6727.999,91.535,350.649,349.079,0.0
53853.0,STARLINK-4794,PAYLOAD,2022-10-16 22:00:00,15.73147261,0.0001226,53.2158,120.8354,85.4431,160.4933,0.00070194,0.00098834,0.0,0 STARLINK-4794,1 53853U 22114AM  22289.91667824  .00098834  00000-0  70194-3 0  9996,2 53853  53.2158 120.8354 0001226  85.4431 160.4933 15.73147261  1306,6728.045999999999,91.536,350.735,349.086,0.0
53853.0,STARLINK-4794,PAYLOAD,2022-10-17 14:00:01,15.73254049,0.0001303,53.216,117.5343,95.9147,327.9192,0.00026676,0.0003707,0.0,0 STARLINK-4794,1 53853U 22114AM  22290.58334491  .00037070  00000-0  26676-3 0  9993,2 53853  53.2160 117.5343 0001303  95.9147 327.9192 15.73254049  5063,6727.741,91.53,350.483,348.72900000000016,0.0
53853.0,STARLINK-4794,PAYLOAD,2022-10-17 22:00:00,15.73234721,0.0001188,53.2154,115.887,80.2301,72.5822,-0.00023214,-0.00033119,0.0,0 STARLINK-4794,1 53853U 22114AM  22290.91667824 -.00033119  00000-0 -23214-3 0  9996,2 53853  53.2154 115.8870 0001188  80.2301  72.5822 15.73234721  5127,6727.795999999999,91.531,350.46,348.862,0.0
53853.0,STARLINK-4794,PAYLOAD,2022-10-18 14:00:01,15.73162473,0.0001167,53.2155,112.5861,91.1106,239.5644,-0.00022561,-0.0003211,0.0,0 STARLINK-4794,1 53853U 22114AM  22291.58334491 -.00032110  00000-0 -22561-3 0  9995,2 53853  53.2155 112.5861 0001167  91.1106 239.5644 15.73162473  5225,6728.002,91.535,350.652,349.082,0.0
53853.0,STARLINK-4794,PAYLOAD,2022-10-18 22:00:00,15.73202359,0.0001388,53.2176,110.9353,89.0192,330.5847,2.5796e-05,3.002e-05,0.0,0 STARLINK-4794,1 53853U 22114AM  22291.91667824  .00003002  00000-0  25796-4 0  9991,2 53853  53.2176 110.9353 0001388  89.0192 330.5847 15.73202359  1302,6727.888000000001,91.533,350.68699999999984,348.82,0.0
53853.0,STARLINK-4794,PAYLOAD,2022-10-19 08:00:01,15.732124,0.0001179,53.2153,108.8747,82.8184,177.8856,0.00018687,0.0002569999999999,0.0,0 STARLINK-4794,1 53853U 22114AM  22292.33334491  .00025700  00000-0  18687-3 0  9998,2 53853  53.2153 108.8747 0001179  82.8184 177.8856 15.73212400  5348,6727.86,91.532,350.51800000000014,348.932,0.0
53853.0,STARLINK-4794,PAYLOAD,2022-10-19 14:00:01,15.73228629,0.0001341,53.2153,107.638,81.5956,155.8293,-6.622899999999999e-05,-9.915e-05,0.0,0 STARLINK-4794,1 53853U 22114AM  22292.58334491 -.00009915  00000-0 -66229-4 0  9993,2 53853  53.2153 107.6380 0001341  81.5956 155.8293 15.73228629  1305,6727.814,91.532,350.581,348.776,0.0
53853.0,STARLINK-4794,PAYLOAD,2022-10-19 22:00:00,15.73230411,0.0001371,53.2148,105.9902,70.3294,256.0516,4.4395e-05,5.622e-05,0.0,0 STARLINK-4794,1 53853U 22114AM  22292.91667824  .00005622  00000-0  44395-4 0  9998,2 53853  53.2148 105.9902 0001371  70.3294 256.0516 15.73230411  1308,6727.808000000001,91.531,350.596,348.751,0.0
53853.0,STARLINK-4794,PAYLOAD,2022-10-20 06:00:00,15.73212254,0.0001179,53.2148,104.3386,78.6673,336.7002,-0.00019076,-0.00027318,0.0,0 STARLINK-4794,1 53853U 22114AM  22293.25001157 -.00027318  00000-0 -19076-3 0  9992,2 53853  53.2148 104.3386 0001179  78.6673 336.7002 15.73212254  5489,6727.86,91.532,350.51800000000014,348.932,0.0
53853.0,STARLINK-4794,PAYLOAD,2022-10-20 14:00:01,15.73225906,0.0001262999999999,53.2149,102.6892,77.6404,66.6372,-0.00051148,-0.00071871,0.0,0 STARLINK-4794,1 53853U 22114AM  22293.58334491 -.00071871  00000-0 -51148-3 0  9997,2 53853  53.2149 102.6892 0001263  77.6404  66.6372 15.73225906  1302,6727.821,91.532,350.536,348.837,0.0
53853.0,STARLINK-4794,PAYLOAD,2022-10-20 22:00:00,15.73133012,0.0001213,53.2153,101.0409,59.9277,173.2884,0.00077552,0.0010933,0.0,0 STARLINK-4794,1 53853U 22114AM  22293.91667824  .00109330  00000-0  77552-3 0  9990,2 53853  53.2153 101.0409 0001213  59.9277 173.2884 15.73133012  1309,6728.0859999999975,91.537,350.767,349.135,0.0
53853.0,STARLINK-4794,PAYLOAD,2022-10-21 14:00:01,15.732411,9.28e-05,53.2154,97.7406,59.234,351.9006,0.00014898,0.00020376,0.0,0 STARLINK-4794,1 53853U 22114AM  22294.58334491  .00020376  00000-0  14898-3 0  9991,2 53853  53.2154  97.7406 0000928  59.2340 351.9006 15.73241100  1303,6727.778,91.531,350.267,349.019,0.0
53853.0,STARLINK-4794,PAYLOAD,2022-10-21 22:00:00,15.73235399,0.0001284,53.2141,96.0924,50.438,89.6562,-0.00041161,-0.00058076,0.0,0 STARLINK-4794,1 53853U 22114AM  22294.91667824 -.00058076  00000-0 -41161-3 0  9990,2 53853  53.2141  96.0924 0001284  50.4380  89.6562 15.73235399  5757,6727.794,91.531,350.523,348.795,0.0
53853.0,STARLINK-4794,PAYLOAD,2022-10-22 14:00:01,15.73177135,0.0001537,53.2143,92.7915,65.3463,252.6087,0.00010555,0.00014204,0.0,0 STARLINK-4794,1 53853U 22114AM  22295.58334491  .00014204  00000-0  10555-3 0  9991,2 53853  53.2143  92.7915 0001537  65.3463 252.6087 15.73177135  1304,6727.96,91.535,350.8590000000001,348.791,0.0
53853.0,STARLINK-4794,PAYLOAD,2022-10-22 22:00:00,15.732423999999998,0.0001511,53.2142,91.1433,50.1428,356.7257,0.00031446,0.00043823,0.0,0 STARLINK-4794,1 53853U 22114AM  22295.91667824  .00043823  00000-0  31446-3 0  9998,2 53853  53.2142  91.1433 0001511  50.1428 356.7257 15.73242400  1309,6727.774,91.531,350.656,348.62300000000016,0.0
53853.0,STARLINK-4794,PAYLOAD,2022-10-23 00:00:02,15.73286371,0.0001416,53.2142,90.7303,49.5866,109.5834,-0.00029154,-0.00041487,0.0,0 STARLINK-4794,1 53853U 22114AM  22296.00002315 -.00041487  00000-0 -29154-3 0  9996,2 53853  53.2142  90.7303 0001416  49.5866 109.5834 15.73286371  5924,6727.649,91.528,350.467,348.561,0.0
53853.0,STARLINK-4794,PAYLOAD,2022-10-23 14:00:01,15.73261087,0.0001238,53.2143,87.8427,45.1786,179.6699,7.2546e-05,9.599e-05,0.0,0 STARLINK-4794,1 53853U 22114AM  22296.58334491  .00009599  00000-0  72546-4 0  9992,2 53853  53.2143  87.8427 0001238  45.1786 179.6699 15.73261087  1306,6727.721,91.53,350.4190000000001,348.75300000000016,0.0
53853.0,STARLINK-4794,PAYLOAD,2022-10-23 22:00:00,15.73268368,0.000151,53.2138,86.1939,41.3632,272.4861,-0.000733,-0.00102549,0.0,0 STARLINK-4794,1 53853U 22114AM  22296.91667824 -.00102549  00000-0 -73300-3 0  9997,2 53853  53.2138  86.1939 0001510  41.3632 272.4861 15.73268368  1303,6727.7,91.529,350.581,348.5490000000001,0.0
53853.0,STARLINK-4794,PAYLOAD,2022-10-24 06:00:00,15.73169062,0.0001291999999999,53.214,84.5421,49.3205,353.5115,-0.0010599,-0.00146612,0.0,0 STARLINK-4794,1 53853U 22114AM  22297.25001157 -.00146612  00000-0 -10599-2 0  9995,2 53853  53.2140  84.5421 0001292  49.3205 353.5115 15.73169062  6113,6727.983,91.535,350.718,348.97900000000016,0.0
53853.0,STARLINK-4794,PAYLOAD,2022-10-24 14:00:01,15.73032374,0.0001324,53.2143,82.8937,41.6258,90.04,0.00088607,0.00124696,0.0,0 STARLINK-4794,1 53853U 22114AM  22297.58334491  .00124696  00000-0  88607-3 0  9993,2 53853  53.2143  82.8937 0001324  41.6258  90.0400 15.73032374  1309,6728.373000000001,91.543,351.129,349.347,0.0
53853.0,STARLINK-4794,PAYLOAD,2022-10-24 22:00:00,15.73123046,0.0001463,53.2143,81.2454,31.1279,189.3086,0.00063565,0.00089247,0.0,0 STARLINK-4794,1 53853U 22114AM  22297.91667824  .00089247  00000-0  63565-3 0  9997,2 53853  53.2143  81.2454 0001463  31.1279 189.3086 15.73123046  1306,6728.115,91.538,350.964,348.995,0.0
53853.0,STARLINK-4794,PAYLOAD,2022-10-25 06:00:00,15.7315963,0.0001364,53.2146,79.5939,36.5399,272.7823,0.00082862,0.00117102,0.0,0 STARLINK-4794,1 53853U 22114AM  22298.25001157  .00117102  00000-0  82862-3 0  9999,2 53853  53.2146  79.5939 0001364  36.5399 272.7823 15.73159630  6274,6728.01,91.536,350.793,348.958,0.0
53853.0,STARLINK-4794,PAYLOAD,2022-10-25 14:00:01,15.73248785,0.0001605,53.2146,77.9456,37.9987,0.2277,-0.00061387,-0.00086079,0.0,0 STARLINK-4794,1 53853U 22114AM  22298.58334491 -.00086079  00000-0 -61387-3 0  9994,2 53853  53.2146  77.9456 0001605  37.9987   0.2277 15.73248785  1302,6727.755999999999,91.53,350.701,348.541,0.0
